<?xml version="1.0" encoding="UTF-8"?>
<ndm xmlns:xsi="http://www.w3.org/2001/XMLSchema-instance" xsi:noNamespaceSchemaLocation="https://sanaregistry.org/r/ndmxml_unqualified/ndmxml-2.0.0-master-2.0.xsd">
<omm id="CCSDS_OMM_VERS" version="2.0">
<header><CREATION_DATE/><ORIGINATOR/></header><body><segment><metadata><OBJECT_NAME>ORBCOMM FM20</OBJECT_NAME><OBJECT_ID>1998-046D</OBJECT_ID><CENTER_NAME>EARTH</CENTER_NAME><REF_FRAME>TEME</REF_FRAME><TIME_SYSTEM>UTC</TIME_SYSTEM><MEAN_ELEMENT_THEORY>SGP4</MEAN_ELEMENT_THEORY></metadata><data><meanElements><EPOCH>2025-03-14T13:47:16.228896</EPOCH><MEAN_MOTION>14.36880409</MEAN_MOTION><ECCENTRICITY>.0001225</ECCENTRICITY><INCLINATION>44.9926</INCLINATION><RA_OF_ASC_NODE>269.2471</RA_OF_ASC_NODE><ARG_OF_PERICENTER>149.8769</ARG_OF_PERICENTER><MEAN_ANOMALY>210.2150</MEAN_ANOMALY></meanElements><tleParameters><EPHEMERIS_TYPE>0</EPHEMERIS_TYPE><CLASSIFICATION_TYPE>U</CLASSIFICATION_TYPE><NORAD_CAT_ID>25416</NORAD_CAT_ID><ELEMENT_SET_NO>999</ELEMENT_SET_NO><REV_AT_EPOCH>39069</REV_AT_EPOCH><BSTAR>.88815E-3</BSTAR><MEAN_MOTION_DOT>.251E-4</MEAN_MOTION_DOT><MEAN_MOTION_DDOT>0</MEAN_MOTION_DDOT></tleParameters></data></segment></body></omm>
<omm id="CCSDS_OMM_VERS" version="2.0">
<header><CREATION_DATE/><ORIGINATOR/></header><body><segment><metadata><OBJECT_NAME>ORBCOMM FM16</OBJECT_NAME><OBJECT_ID>1998-046E</OBJECT_ID><CENTER_NAME>EARTH</CENTER_NAME><REF_FRAME>TEME</REF_FRAME><TIME_SYSTEM>UTC</TIME_SYSTEM><MEAN_ELEMENT_THEORY>SGP4</MEAN_ELEMENT_THEORY></metadata><data><meanElements><EPOCH>2025-03-14T21:18:20.059488</EPOCH><MEAN_MOTION>14.38446526</MEAN_MOTION><ECCENTRICITY>.0005082</ECCENTRICITY><INCLINATION>44.9917</INCLINATION><RA_OF_ASC_NODE>260.5384</RA_OF_ASC_NODE><ARG_OF_PERICENTER>176.7402</ARG_OF_PERICENTER><MEAN_ANOMALY>183.3480</MEAN_ANOMALY></meanElements><tleParameters><EPHEMERIS_TYPE>0</EPHEMERIS_TYPE><CLASSIFICATION_TYPE>U</CLASSIFICATION_TYPE><NORAD_CAT_ID>25417</NORAD_CAT_ID><ELEMENT_SET_NO>999</ELEMENT_SET_NO><REV_AT_EPOCH>39089</REV_AT_EPOCH><BSTAR>.1163E-2</BSTAR><MEAN_MOTION_DOT>.3442E-4</MEAN_MOTION_DOT><MEAN_MOTION_DDOT>0</MEAN_MOTION_DDOT></tleParameters></data></segment></body></omm>
<omm id="CCSDS_OMM_VERS" version="2.0">
<header><CREATION_DATE/><ORIGINATOR/></header><body><segment><metadata><OBJECT_NAME>ORBCOMM FM15</OBJECT_NAME><OBJECT_ID>1998-046F</OBJECT_ID><CENTER_NAME>EARTH</CENTER_NAME><REF_FRAME>TEME</REF_FRAME><TIME_SYSTEM>UTC</TIME_SYSTEM><MEAN_ELEMENT_THEORY>SGP4</MEAN_ELEMENT_THEORY></metadata><data><meanElements><EPOCH>2025-03-14T13:30:52.443936</EPOCH><MEAN_MOTION>14.38111996</MEAN_MOTION><ECCENTRICITY>.0004546</ECCENTRICITY><INCLINATION>44.9957</INCLINATION><RA_OF_ASC_NODE>266.9457</RA_OF_ASC_NODE><ARG_OF_PERICENTER>175.0735</ARG_OF_PERICENTER><MEAN_ANOMALY>185.0158</MEAN_ANOMALY></meanElements><tleParameters><EPHEMERIS_TYPE>0</EPHEMERIS_TYPE><CLASSIFICATION_TYPE>U</CLASSIFICATION_TYPE><NORAD_CAT_ID>25418</NORAD_CAT_ID><ELEMENT_SET_NO>999</ELEMENT_SET_NO><REV_AT_EPOCH>39062</REV_AT_EPOCH><BSTAR>.11146E-2</BSTAR><MEAN_MOTION_DOT>.327E-4</MEAN_MOTION_DOT><MEAN_MOTION_DDOT>0</MEAN_MOTION_DDOT></tleParameters></data></segment></body></omm>
<omm id="CCSDS_OMM_VERS" version="2.0">
<header><CREATION_DATE/><ORIGINATOR/></header><body><segment><metadata><OBJECT_NAME>ORBCOMM FM14</OBJECT_NAME><OBJECT_ID>1998-046G</OBJECT_ID><CENTER_NAME>EARTH</CENTER_NAME><REF_FRAME>TEME</REF_FRAME><TIME_SYSTEM>UTC</TIME_SYSTEM><MEAN_ELEMENT_THEORY>SGP4</MEAN_ELEMENT_THEORY></metadata><data><meanElements><EPOCH>2025-03-14T14:29:35.573280</EPOCH><MEAN_MOTION>14.38436335</MEAN_MOTION><ECCENTRICITY>.0003532</ECCENTRICITY><INCLINATION>44.9944</INCLINATION><RA_OF_ASC_NODE>265.2520</RA_OF_ASC_NODE><ARG_OF_PERICENTER>166.5336</ARG_OF_PERICENTER><MEAN_ANOMALY>193.5607</MEAN_ANOMALY></meanElements><tleParameters><EPHEMERIS_TYPE>0</EPHEMERIS_TYPE><CLASSIFICATION_TYPE>U</CLASSIFICATION_TYPE><NORAD_CAT_ID>25419</NORAD_CAT_ID><ELEMENT_SET_NO>999</ELEMENT_SET_NO><REV_AT_EPOCH>39059</REV_AT_EPOCH><BSTAR>.10918E-2</BSTAR><MEAN_MOTION_DOT>.3222E-4</MEAN_MOTION_DOT><MEAN_MOTION_DDOT>0</MEAN_MOTION_DDOT></tleParameters></data></segment></body></omm>
<omm id="CCSDS_OMM_VERS" version="2.0">
<header><CREATION_DATE/><ORIGINATOR/></header><body><segment><metadata><OBJECT_NAME>ORBCOMM FM13</OBJECT_NAME><OBJECT_ID>1998-046H</OBJECT_ID><CENTER_NAME>EARTH</CENTER_NAME><REF_FRAME>TEME</REF_FRAME><TIME_SYSTEM>UTC</TIME_SYSTEM><MEAN_ELEMENT_THEORY>SGP4</MEAN_ELEMENT_THEORY></metadata><data><meanElements><EPOCH>2025-03-14T13:39:03.984768</EPOCH><MEAN_MOTION>14.37294231</MEAN_MOTION><ECCENTRICITY>.0005448</ECCENTRICITY><INCLINATION>44.9960</INCLINATION><RA_OF_ASC_NODE>272.5017</RA_OF_ASC_NODE><ARG_OF_PERICENTER>158.3698</ARG_OF_PERICENTER><MEAN_ANOMALY>201.7381</MEAN_ANOMALY></meanElements><tleParameters><EPHEMERIS_TYPE>0</EPHEMERIS_TYPE><CLASSIFICATION_TYPE>U</CLASSIFICATION_TYPE><NORAD_CAT_ID>25420</NORAD_CAT_ID><ELEMENT_SET_NO>999</ELEMENT_SET_NO><REV_AT_EPOCH>38962</REV_AT_EPOCH><BSTAR>.96146E-3</BSTAR><MEAN_MOTION_DOT>.2753E-4</MEAN_MOTION_DOT><MEAN_MOTION_DDOT>0</MEAN_MOTION_DDOT></tleParameters></data></segment></body></omm>
<omm id="CCSDS_OMM_VERS" version="2.0">
<header><CREATION_DATE/><ORIGINATOR/></header><body><segment><metadata><OBJECT_NAME>ORBCOMM FM21</OBJECT_NAME><OBJECT_ID>1998-053A</OBJECT_ID><CENTER_NAME>EARTH</CENTER_NAME><REF_FRAME>TEME</REF_FRAME><TIME_SYSTEM>UTC</TIME_SYSTEM><MEAN_ELEMENT_THEORY>SGP4</MEAN_ELEMENT_THEORY></metadata><data><meanElements><EPOCH>2025-03-14T11:39:00.004608</EPOCH><MEAN_MOTION>14.37018825</MEAN_MOTION><ECCENTRICITY>.0001212</ECCENTRICITY><INCLINATION>45.0098</INCLINATION><RA_OF_ASC_NODE>357.8801</RA_OF_ASC_NODE><ARG_OF_PERICENTER>30.3734</ARG_OF_PERICENTER><MEAN_ANOMALY>329.7184</MEAN_ANOMALY></meanElements><tleParameters><EPHEMERIS_TYPE>0</EPHEMERIS_TYPE><CLASSIFICATION_TYPE>U</CLASSIFICATION_TYPE><NORAD_CAT_ID>25475</NORAD_CAT_ID><ELEMENT_SET_NO>999</ELEMENT_SET_NO><REV_AT_EPOCH>38362</REV_AT_EPOCH><BSTAR>.89336E-3</BSTAR><MEAN_MOTION_DOT>.2532E-4</MEAN_MOTION_DOT><MEAN_MOTION_DDOT>0</MEAN_MOTION_DDOT></tleParameters></data></segment></body></omm>
<omm id="CCSDS_OMM_VERS" version="2.0">
<header><CREATION_DATE/><ORIGINATOR/></header><body><segment><metadata><OBJECT_NAME>ORBCOMM FM22</OBJECT_NAME><OBJECT_ID>1998-053B</OBJECT_ID><CENTER_NAME>EARTH</CENTER_NAME><REF_FRAME>TEME</REF_FRAME><TIME_SYSTEM>UTC</TIME_SYSTEM><MEAN_ELEMENT_THEORY>SGP4</MEAN_ELEMENT_THEORY></metadata><data><meanElements><EPOCH>2025-03-14T10:47:15.159264</EPOCH><MEAN_MOTION>14.37950953</MEAN_MOTION><ECCENTRICITY>.0002587</ECCENTRICITY><INCLINATION>45.0089</INCLINATION><RA_OF_ASC_NODE>353.6384</RA_OF_ASC_NODE><ARG_OF_PERICENTER>76.8427</ARG_OF_PERICENTER><MEAN_ANOMALY>283.2710</MEAN_ANOMALY></meanElements><tleParameters><EPHEMERIS_TYPE>0</EPHEMERIS_TYPE><CLASSIFICATION_TYPE>U</CLASSIFICATION_TYPE><NORAD_CAT_ID>25476</NORAD_CAT_ID><ELEMENT_SET_NO>999</ELEMENT_SET_NO><REV_AT_EPOCH>38363</REV_AT_EPOCH><BSTAR>.12492E-2</BSTAR><MEAN_MOTION_DOT>.3669E-4</MEAN_MOTION_DOT><MEAN_MOTION_DDOT>0</MEAN_MOTION_DDOT></tleParameters></data></segment></body></omm>
<omm id="CCSDS_OMM_VERS" version="2.0">
<header><CREATION_DATE/><ORIGINATOR/></header><body><segment><metadata><OBJECT_NAME>ORBCOMM FM23</OBJECT_NAME><OBJECT_ID>1998-053C</OBJECT_ID><CENTER_NAME>EARTH</CENTER_NAME><REF_FRAME>TEME</REF_FRAME><TIME_SYSTEM>UTC</TIME_SYSTEM><MEAN_ELEMENT_THEORY>SGP4</MEAN_ELEMENT_THEORY></metadata><data><meanElements><EPOCH>2025-03-14T11:55:57.961632</EPOCH><MEAN_MOTION>14.37163560</MEAN_MOTION><ECCENTRICITY>.0001846</ECCENTRICITY><INCLINATION>45.0098</INCLINATION><RA_OF_ASC_NODE>0.0698</RA_OF_ASC_NODE><ARG_OF_PERICENTER>58.6705</ARG_OF_PERICENTER><MEAN_ANOMALY>301.4323</MEAN_ANOMALY></meanElements><tleParameters><EPHEMERIS_TYPE>0</EPHEMERIS_TYPE><CLASSIFICATION_TYPE>U</CLASSIFICATION_TYPE><NORAD_CAT_ID>25477</NORAD_CAT_ID><ELEMENT_SET_NO>999</ELEMENT_SET_NO><REV_AT_EPOCH>38377</REV_AT_EPOCH><BSTAR>.10635E-2</BSTAR><MEAN_MOTION_DOT>.3051E-4</MEAN_MOTION_DOT><MEAN_MOTION_DDOT>0</MEAN_MOTION_DDOT></tleParameters></data></segment></body></omm>

</ndm>
