ORBCOMM FM20            
1 25416U 98046D   25073.57449339  .00002510  00000+0  88815-3 0  9996
2 25416  44.9926 269.2471 0001225 149.8769 210.2150 14.36880409390690
ORBCOMM FM16            
1 25417U 98046E   25073.88773217  .00003442  00000+0  11630-2 0  9991
2 25417  44.9917 260.5384 0005082 176.7402 183.3480 14.38446526390894
ORBCOMM FM15            
1 25418U 98046F   25073.56310699  .00003270  00000+0  11146-2 0  9999
2 25418  44.9957 266.9457 0004546 175.0735 185.0158 14.38111996390627
ORBCOMM FM14            
1 25419U 98046G   25073.60388395  .00003222  00000+0  10918-2 0  9996
2 25419  44.9944 265.2520 0003532 166.5336 193.5607 14.38436335390599
ORBCOMM FM13            
1 25420U 98046H   25073.56879612  .00002753  00000+0  96146-3 0  9996
2 25420  44.9960 272.5017 0005448 158.3698 201.7381 14.37294231389628
ORBCOMM FM21            
1 25475U 98053A   25073.48541672  .00002532  00000+0  89336-3 0  9995
2 25475  45.0098 357.8801 0001212  30.3734 329.7184 14.37018825383624
ORBCOMM FM22            
1 25476U 98053B   25073.44948101  .00003669  00000+0  12492-2 0  9990
2 25476  45.0089 353.6384 0002587  76.8427 283.2710 14.37950953383632
ORBCOMM FM23            
1 25477U 98053C   25073.49719863  .00003051  00000+0  10635-2 0  9999
2 25477  45.0098   0.0698 0001846  58.6705 301.4323 14.37163560383776
